NORAD_CAT_ID,OBJECT_NAME,OBJECT_TYPE,EPOCH,MEAN_MOTION,ECCENTRICITY,INCLINATION,RA_OF_ASC_NODE,ARG_OF_PERICENTER,MEAN_ANOMALY,BSTAR,MEAN_MOTION_DOT,MEAN_MOTION_DDOT,TLE_LINE0,TLE_LINE1,TLE_LINE2,SEMIMAJOR_AXIS,PERIOD,APOGEE,PERIGEE,DECAYED
54192.0,STARLINK-5268,PAYLOAD,2023-11-08 03:01:50,15.08824636,0.0001266,53.2169,221.1545,84.6256,275.4881,0.0013569,0.00021364,0.0,0 STARLINK-5268,1 54192U 22141AM  23312.12627803  .00021364  00000-0  13569-2 0  9993,2 54192  53.2169 221.1545 0001266  84.6256 275.4881 15.08824636 57522,6917.927,95.439,540.668,538.917,0.0
54192.0,STARLINK-5268,PAYLOAD,2023-11-09 02:52:37,15.08837168,0.0001114,53.2162,216.6962,100.8421,259.2697,-0.00013932,-2.504e-05,0.0,0 STARLINK-5268,1 54192U 22141AM  23313.11987824 -.00002504  00000-0 -13932-3 0  9997,2 54192  53.2162 216.6962 0001114 100.8421 259.2697 15.08837168 57679,6917.889,95.438,540.525,538.983,0.0
54192.0,STARLINK-5268,PAYLOAD,2023-11-09 21:57:15,15.08842161,9.51e-05,53.2148,213.1361,71.4635,288.6461,0.0011056,0.00017352,0.0,0 STARLINK-5268,1 54192U 22141AM  23313.91476113  .00017352  00000-0  11056-2 0  9998,2 54192  53.2148 213.1361 0000951  71.4635 288.6461 15.08842161 57568,6917.874,95.437,540.397,539.081,0.0
54192.0,STARLINK-5268,PAYLOAD,2023-11-09 23:32:38,15.08849164,0.0001488,53.2165,212.8254,91.8566,268.2597,0.00067259,0.00010435,0.0,0 STARLINK-5268,1 54192U 22141AM  23313.98099815  .00010435  00000-0  67259-3 0  9997,2 54192  53.2165 212.8254 0001488  91.8566 268.2597 15.08849164 57800,6917.852,95.437,540.747,538.688,0.0
54192.0,STARLINK-5268,PAYLOAD,2023-11-10 10:40:20,15.08844404,0.0001326,53.217,210.7458,83.7009,276.4134,0.00058043,8.963e-05,0.0,0 STARLINK-5268,1 54192U 22141AM  23314.44467969  .00008963  00000-0  58043-3 0  9992,2 54192  53.2170 210.7458 0001326  83.7009 276.4134 15.08844404 57879,6917.867,95.437,540.649,538.815,0.0
54192.0,STARLINK-5268,PAYLOAD,2023-11-10 21:48:02,15.08847375,0.000139,53.2168,208.6634,86.4308,273.6843,0.00045351,6.938e-05,0.0,0 STARLINK-5268,1 54192U 22141AM  23314.90835844  .00006938  00000-0  45351-3 0  9992,2 54192  53.2168 208.6634 0001390  86.4308 273.6843 15.08847375 57710,6917.858,95.437,540.684,538.761,0.0
54192.0,STARLINK-5268,PAYLOAD,2023-11-11 10:31:07,15.08838926,0.0001727,53.2193,206.2827,87.6701,272.4489,0.00017572,2.51e-05,0.0,0 STARLINK-5268,1 54192U 22141AM  23315.43828095  .00002510  00000-0  17572-3 0  9997,2 54192  53.2193 206.2827 0001727  87.6701 272.4489 15.08838926 58020,6917.884,95.438,540.943,538.554,0.0
54192.0,STARLINK-5268,PAYLOAD,2023-11-11 21:38:49,15.088404,0.0001379,53.2164,204.2036,85.5869,274.5281,0.00011124,1.483e-05,0.0,0 STARLINK-5268,1 54192U 22141AM  23315.90196031  .00001483  00000-0  11124-3 0  9992,2 54192  53.2164 204.2036 0001379  85.5869 274.5281 15.08840400 57867,6917.879,95.438,540.698,538.79,0.0
54192.0,STARLINK-5268,PAYLOAD,2023-11-12 02:24:58,15.08843342,0.0001525,53.2165,203.3112,83.1027,277.0138,0.00019171,2.765e-05,0.0,0 STARLINK-5268,1 54192U 22141AM  23316.10068021  .00002765  00000-0  19171-3 0  9996,2 54192  53.2165 203.3112 0001525  83.1027 277.0138 15.08843342 57896,6917.87,95.437,540.79,538.68,0.0
54192.0,STARLINK-5268,PAYLOAD,2023-11-12 19:54:13,15.08848432,0.0001552,53.2163,200.0403,81.9995,278.1173,0.00033608,5.066e-05,0.0,0 STARLINK-5268,1 54192U 22141AM  23316.82931952  .00005066  00000-0  33608-3 0  9995,2 54192  53.2163 200.0403 0001552  81.9995 278.1173 15.08848432 58236,6917.855,95.437,540.793,538.646,0.0
54192.0,STARLINK-5268,PAYLOAD,2023-11-12 23:04:59,15.0885071,0.0001525,53.2163,199.4457,81.1707,278.9458,0.00037415,5.673e-05,0.0,0 STARLINK-5268,1 54192U 22141AM  23316.96179816  .00005673  00000-0  37415-3 0  9997,2 54192  53.2163 199.4457 0001525  81.1707 278.9458 15.08850710 58022,6917.848,95.437,540.768,538.658,0.0
54192.0,STARLINK-5268,PAYLOAD,2023-11-13 22:55:46,15.08845613,0.0001554,53.2162,194.984,81.3678,278.749,0.00014836,2.074e-05,0.0,0 STARLINK-5268,1 54192U 22141AM  23317.95539714  .00002074  00000-0  14836-3 0  9998,2 54192  53.2162 194.9840 0001554  81.3678 278.7490 15.08845613 58174,6917.863,95.437,540.803,538.653,0.0
54192.0,STARLINK-5268,PAYLOAD,2023-11-14 08:28:05,15.08841218,0.0001485,53.2155,193.2,78.5113,281.6046,6.9731e-05,8.22e-06,0.0,0 STARLINK-5268,1 54192U 22141AM  23318.35283811  .00000822  00000-0  69731-4 0  9991,2 54192  53.2155 193.2000 0001485  78.5113 281.6046 15.08841218 58235,6917.877,95.437,540.769,538.714,0.0
54192.0,STARLINK-5268,PAYLOAD,2023-11-14 16:25:01,15.08834001,0.000158,53.2178,191.7142,84.5211,275.5961,3.784e-06,-2.28e-06,0.0,0 STARLINK-5268,1 54192U 22141AM  23318.68404142 -.00000228  00000-0  37840-5 0  9997,2 54192  53.2178 191.7142 0001580  84.5211 275.5961 15.08834001 58513,6917.899,95.438,540.857,538.671,0.0
54192.0,STARLINK-5268,PAYLOAD,2023-11-14 22:46:33,15.08840542,0.0001482,53.2176,190.5273,88.4661,271.6501,-2.8486e-05,-7.41e-06,0.0,0 STARLINK-5268,1 54192U 22141AM  23318.94899885 -.00000741  00000-0 -28486-4 0  9994,2 54192  53.2176 190.5273 0001482  88.4661 271.6501 15.08840542 58329,6917.879,95.438,540.769,538.719,0.0
54192.0,STARLINK-5268,PAYLOAD,2023-11-15 17:51:11,15.08834833,0.0001538,53.2149,186.9581,95.9652,264.1515,7.5709e-05,9.17e-06,0.0,0 STARLINK-5268,1 54192U 22141AM  23319.74388320  .00000917  00000-0  75709-4 0  9993,2 54192  53.2149 186.9581 0001538  95.9652 264.1515 15.08834833 58671,6917.896,95.438,540.825,538.697,0.0
54192.0,STARLINK-5268,PAYLOAD,2023-11-16 00:12:43,15.08844448,0.0001452,53.215,185.769,96.1377,263.978,-3.4747e-05,-8.41e-06,0.0,0 STARLINK-5268,1 54192U 22141AM  23320.00883923 -.00000841  00000-0 -34747-4 0  9998,2 54192  53.2150 185.7690 0001452  96.1377 263.9780 15.08844448 58712,6917.867,95.437,540.736,538.727,0.0
54192.0,STARLINK-5268,PAYLOAD,2023-11-17 08:00:26,15.08837732,0.0001445,53.2164,179.8196,85.2799,274.8358,8.4446e-05,1.056e-05,0.0,0 STARLINK-5268,1 54192U 22141AM  23321.33364433  .00001056  00000-0  84446-4 0  9993,2 54192  53.2164 179.8196 0001445  85.2799 274.8358 15.08837732 58913,6917.887,95.438,540.752,538.753,0.0
54192.0,STARLINK-5268,PAYLOAD,2023-11-17 22:18:55,15.08836141,0.000147,53.2174,177.1433,87.0678,273.0482,3.9097e-05,3.34e-06,0.0,0 STARLINK-5268,1 54192U 22141AM  23321.92981021  .00000334  00000-0  39097-4 0  9996,2 54192  53.2174 177.1433 0001470  87.0678 273.0482 15.08836141 58779,6917.892,95.438,540.774,538.74,0.0
54192.0,STARLINK-5268,PAYLOAD,2023-11-17 23:54:18,15.08836035,0.0001475,53.2173,176.8461,86.4777,273.6384,3.2548e-05,2.3e-06,0.0,0 STARLINK-5268,1 54192U 22141AM  23321.99605035  .00000230  00000-0  32548-4 0  9990,2 54192  53.2173 176.8461 0001475  86.4777 273.6384 15.08836035 59010,6917.893,95.438,540.778,538.737,0.0
54192.0,STARLINK-5268,PAYLOAD,2023-11-18 07:51:14,15.088416,0.0001434,53.2185,175.3598,85.885,274.2306,6.1769e-05,6.95e-06,0.0,0 STARLINK-5268,1 54192U 22141AM  23322.32724665  .00000695  00000-0  61769-4 0  9991,2 54192  53.2185 175.3598 0001434  85.8850 274.2306 15.08841600 58832,6917.875,95.437,540.733,538.748,0.0
54192.0,STARLINK-5268,PAYLOAD,2023-11-18 20:34:18,15.08842072,0.0001394,53.219,172.9803,87.3298,272.7853,0.00014542,2.027e-05,0.0,0 STARLINK-5268,1 54192U 22141AM  23322.85716298  .00002027  00000-0  14542-3 0  9999,2 54192  53.2190 172.9803 0001394  87.3298 272.7853 15.08842072 59147,6917.874,95.437,540.703,538.775,0.0
54192.0,STARLINK-5268,PAYLOAD,2023-11-19 07:42:00,15.08842574,0.0001377,53.2191,170.8988,87.4886,272.6264,0.0001348,1.858e-05,0.0,0 STARLINK-5268,1 54192U 22141AM  23323.32084315  .00001858  00000-0  13480-3 0  9991,2 54192  53.2191 170.8988 0001377  87.4886 272.6264 15.08842574 58987,6917.873,95.437,540.69,538.785,0.0
54192.0,STARLINK-5268,PAYLOAD,2023-11-19 20:25:05,15.08842717,0.0001419,53.2167,168.5195,92.1755,267.94,0.000117,1.575e-05,0.0,0 STARLINK-5268,1 54192U 22141AM  23323.85076369  .00001575  00000-0  11700-3 0  9998,2 54192  53.2167 168.5195 0001419  92.1755 267.9400 15.08842717 59067,6917.872,95.437,540.719,538.755,0.0
54192.0,STARLINK-5268,PAYLOAD,2023-11-19 23:35:52,15.08843797,0.0001411,53.2173,167.9253,90.2853,269.8301,0.00011697,1.574e-05,0.0,0 STARLINK-5268,1 54192U 22141AM  23323.98324220  .00001574  00000-0  11697-3 0  9998,2 54192  53.2173 167.9253 0001411  90.2853 269.8301 15.08843797 59310,6917.869,95.437,540.71,538.758,0.0
54192.0,STARLINK-5268,PAYLOAD,2023-11-20 20:15:53,15.08841912,0.0001496,53.2172,164.0607,90.5388,269.5775,4.4791e-05,4.25e-06,0.0,0 STARLINK-5268,1 54192U 22141AM  23324.84436399  .00000425  00000-0  44791-4 0  9991,2 54192  53.2172 164.0607 0001496  90.5388 269.5775 15.08841912 59217,6917.875,95.437,540.774,538.705,0.0
54192.0,STARLINK-5268,PAYLOAD,2023-11-21 12:09:44,15.08839981,0.0001498,53.217,161.0875,90.0991,270.0173,2.6377e-05,1.32e-06,0.0,0 STARLINK-5268,1 54192U 22141AM  23325.50676608  .00000132  00000-0  26377-4 0  9999,2 54192  53.2170 161.0875 0001498  90.0991 270.0173 15.08839981 59319,6917.88,95.438,540.782,538.709,0.0
54192.0,STARLINK-5268,PAYLOAD,2023-11-21 20:06:40,15.08840852,0.0001505,53.217,159.6006,90.5595,269.5569,2.9555e-05,1.82e-06,0.0,0 STARLINK-5268,1 54192U 22141AM  23325.83796611  .00000182  00000-0  29555-4 0  9998,2 54192  53.2170 159.6006 0001505  90.5595 269.5569 15.08840852 59368,6917.878,95.438,540.784,538.702,0.0
54192.0,STARLINK-5268,PAYLOAD,2023-11-21 23:17:26,15.08842901,0.0001492,53.2169,159.0055,90.347,269.7693,4.4489e-05,4.2e-06,0.0,0 STARLINK-5268,1 54192U 22141AM  23325.97044422  .00000420  00000-0  44489-4 0  9997,2 54192  53.2169 159.0055 0001492  90.3470 269.7693 15.08842901 59614,6917.872,95.437,540.769,538.704,0.0
54192.0,STARLINK-5268,PAYLOAD,2023-11-22 19:57:27,15.08840722,0.0001502,53.2168,155.1391,99.9038,260.2124,6.3904e-05,7.29e-06,0.0,0 STARLINK-5268,1 54192U 22141AM  23326.83156520  .00000729  00000-0  63904-4 0  9991,2 54192  53.2168 155.1391 0001502  99.9038 260.2124 15.08840722 59513,6917.878,95.438,540.782,538.704,0.0
